[{"OBJECT_NAME":"ONEWEB-0058","OBJECT_ID":"2020-008AG","EPOCH":"2026-03-03T12:45:55.836864","MEAN_MOTION":13.10369645,"ECCENTRICITY":0.0001973,"INCLINATION":87.8759,"RA_OF_ASC_NODE":57.3195,"ARG_OF_PERICENTER":96.1037,"MEAN_ANOMALY":264.0315,"EPHEMERIS_TYPE":0,"CLASSIFICATION_TYPE":"U","NORAD_CAT_ID":45161,"ELEMENT_SET_NO":999,"REV_AT_EPOCH":29458,"BSTAR":-0.00058273,"MEAN_MOTION_DOT":-1.91e-6,"MEAN_MOTION_DDOT":0},{"OBJECT_NAME":"ONEWEB-0059","OBJECT_ID":"2020-008AH","EPOCH":"2026-03-03T12:40:56.910144","MEAN_MOTION":13.10369908,"ECCENTRICITY":0.0001792,"INCLINATION":87.8758,"RA_OF_ASC_NODE":57.3207,"ARG_OF_PERICENTER":91.9224,"MEAN_ANOMALY":268.2109,"EPHEMERIS_TYPE":0,"CLASSIFICATION_TYPE":"U","NORAD_CAT_ID":45162,"ELEMENT_SET_NO":999,"REV_AT_EPOCH":29448,"BSTAR":-6.8664e-5,"MEAN_MOTION_DOT":-1.1e-7,"MEAN_MOTION_DDOT":0},{"OBJECT_NAME":"ONEWEB-0062","OBJECT_ID":"2020-008AJ","EPOCH":"2026-03-03T22:27:45.666144","MEAN_MOTION":13.10374596,"ECCENTRICITY":0.00021087,"INCLINATION":87.8774,"RA_OF_ASC_NODE":57.2214,"ARG_OF_PERICENTER":97.9645,"MEAN_ANOMALY":262.1722,"EPHEMERIS_TYPE":0,"CLASSIFICATION_TYPE":"U","NORAD_CAT_ID":45163,"ELEMENT_SET_NO":999,"REV_AT_EPOCH":29440,"BSTAR":-0.0016491056,"MEAN_MOTION_DOT":-5.63e-6,"MEAN_MOTION_DDOT":0},{"OBJECT_NAME":"ONEWEB-0065","OBJECT_ID":"2020-008AK","EPOCH":"2026-03-03T12:12:05.208768","MEAN_MOTION":13.1037354,"ECCENTRICITY":0.0001823,"INCLINATION":87.8762,"RA_OF_ASC_NODE":57.3156,"ARG_OF_PERICENTER":76.8968,"MEAN_ANOMALY":283.2363,"EPHEMERIS_TYPE":0,"CLASSIFICATION_TYPE":"U","NORAD_CAT_ID":45164,"ELEMENT_SET_NO":999,"REV_AT_EPOCH":29404,"BSTAR":0.0016582,"MEAN_MOTION_DOT":5.92e-6,"MEAN_MOTION_DDOT":0},{"OBJECT_NAME":"ONEWEB-0066","OBJECT_ID":"2020-020A","EPOCH":"2026-03-03T11:24:58.686336","MEAN_MOTION":13.11414922,"ECCENTRICITY":0.00017026,"INCLINATION":87.8857,"RA_OF_ASC_NODE":42.0863,"ARG_OF_PERICENTER":87.7555,"MEAN_ANOMALY":272.3768,"EPHEMERIS_TYPE":0,"CLASSIFICATION_TYPE":"U","NORAD_CAT_ID":45424,"ELEMENT_SET_NO":999,"REV_AT_EPOCH":28882,"BSTAR":0.0011685698,"MEAN_MOTION_DOT":4.27e-6,"MEAN_MOTION_DDOT":0},{"OBJECT_NAME":"ONEWEB-0067","OBJECT_ID":"2020-020B","EPOCH":"2026-03-03T10:29:00.689856","MEAN_MOTION":13.11417422,"ECCENTRICITY":0.00016834,"INCLINATION":87.8866,"RA_OF_ASC_NODE":42.0027,"ARG_OF_PERICENTER":79.9552,"MEAN_ANOMALY":280.1766,"EPHEMERIS_TYPE":0,"CLASSIFICATION_TYPE":"U","NORAD_CAT_ID":45425,"ELEMENT_SET_NO":999,"REV_AT_EPOCH":28887,"BSTAR":-0.0011829782,"MEAN_MOTION_DOT":-4.07e-6,"MEAN_MOTION_DDOT":0},{"OBJECT_NAME":"ONEWEB-0080","OBJECT_ID":"2020-020C","EPOCH":"2026-03-03T10:42:13.078080","MEAN_MOTION":13.11418772,"ECCENTRICITY":0.00020943,"INCLINATION":87.8858,"RA_OF_ASC_NODE":42.0899,"ARG_OF_PERICENTER":92.1895,"MEAN_ANOMALY":267.9473,"EPHEMERIS_TYPE":0,"CLASSIFICATION_TYPE":"U","NORAD_CAT_ID":45426,"ELEMENT_SET_NO":999,"REV_AT_EPOCH":28884,"BSTAR":-0.0010612878,"MEAN_MOTION_DOT":-3.63e-6,"MEAN_MOTION_DDOT":0},{"OBJECT_NAME":"ONEWEB-0090","OBJECT_ID":"2020-020D","EPOCH":"2026-03-03T22:09:43.963200","MEAN_MOTION":13.11416201,"ECCENTRICITY":0.00018918,"INCLINATION":87.8855,"RA_OF_ASC_NODE":41.9959,"ARG_OF_PERICENTER":84.9176,"MEAN_ANOMALY":275.2168,"EPHEMERIS_TYPE":0,"CLASSIFICATION_TYPE":"U","NORAD_CAT_ID":45427,"ELEMENT_SET_NO":999,"REV_AT_EPOCH":28887,"BSTAR":0.001439938,"MEAN_MOTION_DOT":5.23e-6,"MEAN_MOTION_DDOT":0},{"OBJECT_NAME":"ONEWEB-0061","OBJECT_ID":"2020-020E","EPOCH":"2026-03-03T22:55:42.825792","MEAN_MOTION":13.11416127,"ECCENTRICITY":0.00018427,"INCLINATION":87.8857,"RA_OF_ASC_NODE":41.9752,"ARG_OF_PERICENTER":85.9307,"MEAN_ANOMALY":274.2031,"EPHEMERIS_TYPE":0,"CLASSIFICATION_TYPE":"U","NORAD_CAT_ID":45428,"ELEMENT_SET_NO":999,"REV_AT_EPOCH":28883,"BSTAR":-0.0011166408,"MEAN_MOTION_DOT":-3.83e-6,"MEAN_MOTION_DDOT":0},{"OBJECT_NAME":"ONEWEB-0081","OBJECT_ID":"2020-020F","EPOCH":"2026-03-03T11:29:50.840160","MEAN_MOTION":13.11413798,"ECCENTRICITY":0.0001632,"INCLINATION":87.8859,"RA_OF_ASC_NODE":42.0855,"ARG_OF_PERICENTER":82.8923,"MEAN_ANOMALY":277.239,"EPHEMERIS_TYPE":0,"CLASSIFICATION_TYPE":"U","NORAD_CAT_ID":45429,"ELEMENT_SET_NO":999,"REV_AT_EPOCH":28888,"BSTAR":0.00075180258,"MEAN_MOTION_DOT":2.79e-6,"MEAN_MOTION_DDOT":0},{"OBJECT_NAME":"ONEWEB-0069","OBJECT_ID":"2020-020G","EPOCH":"2026-03-03T20:23:20.004576","MEAN_MOTION":13.11417302,"ECCENTRICITY":0.00017576,"INCLINATION":87.8854,"RA_OF_ASC_NODE":42.0067,"ARG_OF_PERICENTER":84.8663,"MEAN_ANOMALY":275.2665,"EPHEMERIS_TYPE":0,"CLASSIFICATION_TYPE":"U","NORAD_CAT_ID":45430,"ELEMENT_SET_NO":999,"REV_AT_EPOCH":28886,"BSTAR":0.0015808221,"MEAN_MOTION_DOT":5.73e-6,"MEAN_MOTION_DDOT":0},{"OBJECT_NAME":"ONEWEB-0031","OBJECT_ID":"2020-020H","EPOCH":"2026-03-03T10:33:41.758560","MEAN_MOTION":13.11417568,"ECCENTRICITY":0.00019985,"INCLINATION":87.8846,"RA_OF_ASC_NODE":42.1065,"ARG_OF_PERICENTER":88.6239,"MEAN_ANOMALY":271.5118,"EPHEMERIS_TYPE":0,"CLASSIFICATION_TYPE":"U","NORAD_CAT_ID":45431,"ELEMENT_SET_NO":999,"REV_AT_EPOCH":28879,"BSTAR":-0.00085208458,"MEAN_MOTION_DOT":-2.89e-6,"MEAN_MOTION_DDOT":0},{"OBJECT_NAME":"ONEWEB-0027","OBJECT_ID":"2020-020J","EPOCH":"2026-03-03T19:55:58.624032","MEAN_MOTION":13.17647363,"ECCENTRICITY":0.00022534,"INCLINATION":87.915,"RA_OF_ASC_NODE":26.7637,"ARG_OF_PERICENTER":81.9174,"MEAN_ANOMALY":278.2213,"EPHEMERIS_TYPE":0,"CLASSIFICATION_TYPE":"U","NORAD_CAT_ID":45432,"ELEMENT_SET_NO":999,"REV_AT_EPOCH":29248,"BSTAR":0.00012178553,"MEAN_MOTION_DOT":6.0e-7,"MEAN_MOTION_DDOT":0},{"OBJECT_NAME":"ONEWEB-0064","OBJECT_ID":"2020-020K","EPOCH":"2026-03-03T10:31:15.269088","MEAN_MOTION":13.11416801,"ECCENTRICITY":0.00020245,"INCLINATION":87.8847,"RA_OF_ASC_NODE":42.0975,"ARG_OF_PERICENTER":85.6855,"MEAN_ANOMALY":274.4504,"EPHEMERIS_TYPE":0,"CLASSIFICATION_TYPE":"U","NORAD_CAT_ID":45433,"ELEMENT_SET_NO":999,"REV_AT_EPOCH":28882,"BSTAR":-0.0010068079,"MEAN_MOTION_DOT":-3.44e-6,"MEAN_MOTION_DDOT":0},{"OBJECT_NAME":"ONEWEB-0018","OBJECT_ID":"2020-020L","EPOCH":"2026-03-03T20:26:59.664480","MEAN_MOTION":13.11416266,"ECCENTRICITY":0.00017647,"INCLINATION":87.8858,"RA_OF_ASC_NODE":42.0112,"ARG_OF_PERICENTER":90.4873,"MEAN_ANOMALY":269.6457,"EPHEMERIS_TYPE":0,"CLASSIFICATION_TYPE":"U","NORAD_CAT_ID":45434,"ELEMENT_SET_NO":999,"REV_AT_EPOCH":28882,"BSTAR":0.0014554189,"MEAN_MOTION_DOT":5.29e-6,"MEAN_MOTION_DDOT":0},{"OBJECT_NAME":"ONEWEB-0083","OBJECT_ID":"2020-020M","EPOCH":"2026-03-03T20:13:33.944736","MEAN_MOTION":13.11416624,"ECCENTRICITY":0.00018902,"INCLINATION":87.886,"RA_OF_ASC_NODE":42.0005,"ARG_OF_PERICENTER":85.0568,"MEAN_ANOMALY":275.0776,"EPHEMERIS_TYPE":0,"CLASSIFICATION_TYPE":"U","NORAD_CAT_ID":45435,"ELEMENT_SET_NO":999,"REV_AT_EPOCH":28886,"BSTAR":0.0011585605,"MEAN_MOTION_DOT":4.23e-6,"MEAN_MOTION_DDOT":0},{"OBJECT_NAME":"ONEWEB-0095","OBJECT_ID":"2020-020N","EPOCH":"2026-03-03T10:50:59.409600","MEAN_MOTION":13.11419205,"ECCENTRICITY":0.00023859,"INCLINATION":87.8859,"RA_OF_ASC_NODE":42.0872,"ARG_OF_PERICENTER":67.98,"MEAN_ANOMALY":292.1582,"EPHEMERIS_TYPE":0,"CLASSIFICATION_TYPE":"U","NORAD_CAT_ID":45436,"ELEMENT_SET_NO":999,"REV_AT_EPOCH":28881,"BSTAR":0.00050278399,"MEAN_MOTION_DOT":1.91e-6,"MEAN_MOTION_DDOT":0}]
